BEIDOU-3 M25            
1 58654U 23207A   24012.78903214 -.00000010  00000+0  00000+0 0  9995
2 58654  54.9834  92.4069 0117453 179.0387 181.0287  1.82957571   337
BEIDOU-3 M26            
1 58655U 23207B   24005.84694770 -.00000037  00000+0  00000+0 0  9998
2 58655  54.6471  92.7627 0316732  68.9835  87.0455  1.85607573   193
YZ-1 R/B                
1 58656U 23207C   24017.61141969 -.00000041  00000+0  00000+0 0  9999
2 58656  55.0446  92.0965 0027864 330.0857  29.7979  1.79266382   401
CZ-3B R/B               
1 58657U 23207D   24017.43983611  .00062888  00000+0  22460-2 0  9991
2 58657  54.9669  80.6057 5790987 177.2864 188.4190  4.43505436   980
COSMOS 2574             
1 58658U 23209A   24017.48460993  .00031613  00000+0  23652-3 0  9999
2 58658  96.7543 276.0474 0005052 328.5222  31.5740 15.72608238  3335
SL-4 R/B                
1 58659U 23209B   24017.27588835  .00081392  00000+0  54940-3 0  9996
2 58659  96.7576 275.9065 0001972 308.1837  51.9252 15.74848510  3288
TIANMU-1 19             
1 58660U 23208A   24017.54793066  .00008562  00000+0  48393-3 0  9994
2 58660  97.3994 134.1014 0011834 167.8200 192.3320 15.13269830  3228
TIANMU-1 20             
1 58661U 23208B   24017.54408791  .00008969  00000+0  49461-3 0  9991
2 58661  97.3917 134.0822 0011073 180.3730 179.7496 15.14145624  3221
TIANMU-1 21             
1 58662U 23208C   24017.54267361  .00009692  00000+0  53266-3 0  9990
2 58662  97.3964 134.0973 0010155 180.8006 179.3211 15.14255732  3225
TIANMU-1 22             
1 58663U 23208D   24017.53813294  .00009514  00000+0  51827-3 0  9996
2 58663  97.3979 134.1074 0010539 189.7978 170.3051 15.14572765  3228
STARLINK-31113          
1 58668U 23211B   24017.58334491 -.01745876  00000+0 -26602-1 0  9999
2 58668  43.0001 176.2025 0001362 263.5949  20.6469 15.56779810  4220
STARLINK-31128          
1 58669U 23211C   24017.58334491 -.01747239  00000+0 -26641-1 0  9998
2 58669  43.0001 176.1841 0001282 265.1609  26.7835 15.56764866  4014
STARLINK-31083          
1 58670U 23211D   24017.58334491 -.01746162  00000+0 -26603-1 0  9992
2 58670  43.0002 176.2090 0001385 264.9641  17.5661 15.56783462  4121
STARLINK-30828          
1 58671U 23211E   24017.58334491 -.01747937  00000+0 -26632-1 0  9996
2 58671  43.0001 176.2058 0001465 258.5527  24.8316 15.56783997  3744
STARLINK-31104          
1 58672U 23211F   24017.58334491 -.01746341  00000+0 -26604-1 0  9994
2 58672  43.0001 176.2112 0001413 265.9910  15.6832 15.56785260  4227
STARLINK-31131          
1 58673U 23211G   24017.58334491 -.00085009  00000+0 -34204-3 0  9998
2 58673  42.9983 174.8223 0001879 258.7078 217.5864 15.85555902  4243
STARLINK-31124          
1 58674U 23211H   24017.58334491 -.01744388  00000+0 -26576-1 0  9993
2 58674  43.0001 176.2021 0001652 268.2283  16.8689 15.56777669  4128
STARLINK-31126          
1 58675U 23211J   24017.58334491 -.01748553  00000+0 -28323-1 0  9994
2 58675  43.0001 176.1093 0001425 264.6052  56.8935 15.55151131  4126
STARLINK-31066          
1 58676U 23211K   24017.58334491 -.01753567  00000+0 -21149-1 0  9995
2 58676  43.0004 175.5780 0001058 278.8779 256.1141 15.62850191  4226
STARLINK-31058          
1 58677U 23211L   24017.58334491 -.01746444  00000+0 -26621-1 0  9992
2 58677  43.0001 176.1952 0001122 271.6779  15.9871 15.56772731  4121
STARLINK-31125          
1 58678U 23211M   24017.58334491 -.01744553  00000+0 -26587-1 0  9993
2 58678  43.0002 176.1933 0001490 256.3492  32.1713 15.56771041  4121
STARLINK-31110          
1 58679U 23211N   24017.58334491 -.01746778  00000+0 -26627-1 0  9990
2 58679  43.0001 176.1912 0001402 265.9014  23.4755 15.56769862  4225
STARLINK-31112          
1 58680U 23211P   24017.58334491 -.01746665  00000+0 -26629-1 0  9999
2 58680  43.0001 176.1867 0001360 264.1870  26.9015 15.56766330  4123
STARLINK-31147          
1 58681U 23211Q   24017.58334491 -.01746725  00000+0 -26627-1 0  9995
2 58681  43.0001 176.1894 0001484 266.7266  23.5059 15.56768198  4224
STARLINK-31144          
1 58682U 23211R   24017.58334491 -.01747521  00000+0 -26648-1 0  9994
2 58682  43.0001 176.1802 0001364 261.1756  32.4800 15.56761941  4226
STARLINK-31095          
1 58683U 23211S   24017.58334491 -.01747254  00000+0 -26643-1 0  9993
2 58683  43.0000 176.1835 0001319 268.2247  24.5757 15.56762790  4221
STARLINK-31107          
1 58684U 23211T   24017.58334491 -.01747187  00000+0 -26648-1 0  9994
2 58684  43.0000 176.1748 0001368 263.4265  32.7968 15.56756215  4125
STARLINK-31121          
1 58685U 23211U   24017.58334491 -.01747489  00000+0 -26656-1 0  9999
2 58685  43.0000 176.1676 0001575 266.1256  32.6646 15.56751430  4122
STARLINK-31137          
1 58686U 23211V   24017.58334491 -.01747470  00000+0 -26650-1 0  9994
2 58686  43.0001 176.1758 0001416 260.0475  35.3196 15.56758593  4223
STARLINK-31109          
1 58687U 23211W   24017.58334491  .00081747  00000+0  93580-3 0  9998
2 58687  43.0000 176.1472 0003163 252.9476  53.9099 15.61163122  4220
STARLINK-31139          
1 58688U 23211X   24017.58334491 -.01747631  00000+0 -26656-1 0  9991
2 58688  43.0001 176.1720 0001430 259.2400  37.8387 15.56755223  4224
STARLINK-31106          
1 58689U 23211Y   24017.58334491 -.01747293  00000+0 -26647-1 0  9996
2 58689  43.0001 176.1791 0001313 264.3301  30.1818 15.56759525  4123
HULIANWANG JISHU SHIYAN*
1 58691U 23212A   24017.42927417  .00000069  00000+0  18208-3 0  9995
2 58691  50.0024 356.0021 0007748   3.3355 356.7593 13.86992036  2551
HULIANWANG JISHU SHIYAN*
1 58692U 23212B   24017.42342385  .00000045  00000+0  16150-3 0  9999
2 58692  49.9993 355.9681 0004764 349.4797  10.6000 13.86964638  2560
HULIANWANG JISHU SHIYAN*
1 58693U 23212C   24017.42627571  .00000050  00000+0  16574-3 0  9999
2 58693  50.0007 355.9846 0006963 346.1908  13.8797 13.86990650  2565
XPOSAT                  
1 58694U 24001A   24001.68468223  .00000628  00000+0  00000+0 0  9999
2 58694   5.9870 115.4463 0010488 359.8378  55.4280 14.74838619    62
POEM-3                  
1 58695U 24001B   24004.74596408  .00097489  00000+0  61795-3 0  9990
2 58695   9.6657  72.7054 0007217  17.8593 342.1874 15.74486494   565
OVZON-3                 
1 58698U 24003A   24007.90008986  .00001087  00000+0  14885-2 0  9991
2 58698  26.8783 294.3788 7795380 181.9350 170.5174  1.65227493    70
FALCON 9 R/B            
1 58699U 24003B   24013.87320111  .00009612  00000+0  53597-2 0  9997
2 58699  26.7161 292.9529 7795204 184.4487 157.8642  1.66282490   179
TIANMU-1 15             
1 58700U 24004A   24017.61245411  .00007440  00000+0  41562-3 0  9993
2 58700  97.4567 201.7407 0010533 210.8658 149.1956 15.13753311  1830
TIANMU-1 16             
1 58701U 24004B   24017.60931709  .00007665  00000+0  42242-3 0  9990
2 58701  97.4492 201.7324 0010718 217.7127 142.3354 15.14226434  1837
TIANMU-1 17             
1 58702U 24004C   24017.60815710  .00007719  00000+0  42363-3 0  9998
2 58702  97.4537 201.7414 0010053 220.0769 139.9722 15.14378548  1823
TIANMU-1 18             
1 58703U 24004D   24017.60502821  .00007786  00000+0  42254-3 0  9998
2 58703  97.4552 201.7480 0010718 230.0726 129.9565 15.14772315  1820
STARLINK-11072 [DTC]    
1 58705U 24002A   24017.56454234  .00053570  00000+0  44487-3 0  9999
2 58705  53.1616 177.1030 0001026  56.7878 303.3238 15.69671962  3498
STARLINK-11075 [DTC]    
1 58706U 24002B   24017.24392268  .00558756  00000+0  42784-2 0  9996
2 58706  53.1610 178.6566 0000682  74.0956 286.0137 15.69905328  3446
STARLINK-11077 [DTC]    
1 58707U 24002C   24017.62132144  .00059271  00000+0  49072-3 0  9990
2 58707  53.1586 176.7407 0002144  72.0924 288.0327 15.69702438  3507
STARLINK-11079 [DTC]    
1 58708U 24002D   24017.61625437  .00570686  00000+0  44122-2 0  9990
2 58708  53.1587 176.7109 0001126  80.4879 279.6266 15.69636494  3505
STARLINK-11076 [DTC]    
1 58709U 24002E   24017.58334491 -.00112366  00000+0 -93282-3 0  9995
2 58709  53.1666 176.5989 0000540  66.9080 246.1095 15.69772600  3352
STARLINK-11078 [DTC]    
1 58710U 24002F   24017.58334491 -.00015647  00000+0 -12442-3 0  9990
2 58710  53.1629 176.6248 0000700  57.2380 243.0155 15.69733014  3467
STARLINK-31031          
1 58711U 24002G   24017.58334491 -.01696893  00000+0 -40627-1 0  9994
2 58711  53.1610 177.7838 0001339  79.5588   4.4688 15.44330067  3353
STARLINK-31029          
1 58712U 24002H   24017.58334491  .00044348  00000+0  96626-3 0  9996
2 58712  53.1583 178.1838 0000269 352.4737 248.2769 15.43851068  3354
STARLINK-30973          
1 58713U 24002J   24017.58334491  .00093852  00000+0  20232-2 0  9990
2 58713  53.1585 178.1820 0000909  63.9564 177.5815 15.43829400  3475
STARLINK-31100          
1 58714U 24002K   24017.58334491 -.00055918  00000+0 -12116-2 0  9996
2 58714  53.1588 178.1791 0000751  85.4479 156.9902 15.43899574  3517
STARLINK-31102          
1 58715U 24002L   24017.58334491 -.00052421  00000+0 -11350-2 0  9992
2 58715  53.1587 178.1775 0001140  88.0165 155.2718 15.43892477  3403
STARLINK-31098          
1 58716U 24002M   24017.58334491 -.00061417  00000+0 -13327-2 0  9994
2 58716  53.1587 178.1757 0000944 105.5021 138.6205 15.43897134  3479
STARLINK-31093          
1 58717U 24002N   24017.58334491 -.00069383  00000+0 -15082-2 0  9995
2 58717  53.1588 178.1740 0000818  76.4346 168.5266 15.43899082  3359
STARLINK-31097          
1 58718U 24002P   24017.58334491 -.00081598  00000+0 -17783-2 0  9998
2 58718  53.1588 178.1722 0000777  85.6195 160.1943 15.43896555  3473
STARLINK-31051          
1 58719U 24002Q   24017.58334491 -.00054627  00000+0 -11835-2 0  9994
2 58719  53.1587 178.1705 0000782  99.2491 147.3999 15.43892379  3355
STARLINK-31027          
1 58720U 24002R   24017.58334491 -.00053978  00000+0 -11690-2 0  9993
2 58720  53.1588 178.1688 0001282  88.3959 159.0856 15.43897585  3358
STARLINK-30972          
1 58721U 24002S   24017.58334491 -.00053255  00000+0 -11532-2 0  9997
2 58721  53.1587 178.1671 0000892  83.1229 165.2004 15.43895972  3474
